IRIDIUM 112             
1 41925U 17003J   25196.50044385  .00000172  00000+0  54331-4 0  9993
2 41925  86.3950 228.9354 0002396  92.6228 267.5242 14.34219348445040
IRIDIUM 111             
1 41926U 17003K   25196.13891419  .00000033  00000+0  45906-5 0  9996
2 41926  86.3952 229.1496 0002184  89.3169 270.8277 14.34217974445010
IRIDIUM 113             
1 42803U 17039A   25196.46772243  .00000063  00000+0  15432-4 0  9992
2 42803  86.3967 102.9427 0002440  83.2869 276.8604 14.34217980422920
IRIDIUM 123             
1 42804U 17039B   25196.23012653  .00000058  00000+0  13815-4 0  9997
2 42804  86.4001 134.5089 0002062  76.9549 283.1876 14.34217916421650
IRIDIUM 120             
1 42805U 17039C   25195.69392293  .00000158  00000+0  49255-4 0  9996
2 42805  86.3958 103.0923 0001854  85.1801 274.9606 14.34219074422804
IRIDIUM 115             
1 42806U 17039D   25196.44801916  .00000293  00000+0  81132-4 0  9998
2 42806  86.4496 102.8597 0001877  66.5902 293.5496 14.43280660425690
IRIDIUM 118             
1 42807U 17039E   25196.54091285  .00000143  00000+0  44018-4 0  9996
2 42807  86.3998 134.3786 0002445  83.5083 276.6391 14.34217505421700
IRIDIUM 117             
1 42808U 17039F   25196.21109889  .00000060  00000+0  14446-4 0  9991
2 42808  86.3999 134.4773 0002252  77.6931 282.4517 14.34217966421684
